H1 CPF  1  HTS 2022 12 20 12  8541 larets           NONE
H2  0304206 5557    27944 2022 12 20  0  0  0 2022 12 25  0  0  0   180 1 1  0 0 0
H5  0.0560 
H9 
10 0 59937  20520.00000  0   -3481380.904    5170252.385   -3347479.450
10 0 59937  20700.00000  0   -2826437.572    4717211.416   -4453499.737
10 0 59937  20880.00000  0   -2083770.083    4075433.969   -5397490.928
10 0 59937  21060.00000  0   -1284986.282    3266432.579   -6145396.722
10 0 59937  21240.00000  0    -462968.815    2318485.727   -6670307.252
10 0 59937  21420.00000  0     349456.642    1265627.786   -6953353.412
10 0 59937  21600.00000  0    1120798.105     146435.684   -6984323.006
10 0 59937  21780.00000  0    1822084.238    -997352.284   -6761998.783
10 0 59937  21960.00000  0    2427925.219   -2122348.709   -6294209.773
10 0 59937  22140.00000  0    2917419.373   -3185116.425   -5597601.406
10 0 59937  22320.00000  0    3274884.441   -4143821.969   -4697122.703
10 0 59937  22500.00000  0    3490383.342   -4959888.691   -3625213.259
10 0 59937  22680.00000  0    3560019.544   -5599578.424   -2420710.852
10 0 59937  22860.00000  0    3485989.503   -6035445.212   -1127494.517
10 0 59937  23040.00000  0    3276376.015   -6247576.801     207107.241
10 0 59937  23220.00000  0    2944681.909   -6224549.530    1534081.409
10 0 59937  23400.00000  0    2509124.227   -5964036.940    2804590.166
10 0 59937  23580.00000  0    1991721.583   -5473027.390    3971839.711
10 0 59937  23760.00000  0    1417225.058   -4767641.606    4992860.054
10 0 59937  23940.00000  0     811954.676   -3872565.523    5830123.542
10 0 59937  24120.00000  0     202598.763   -2820124.285    6452936.604
10 0 59937  24300.00000  0    -384963.151   -1649047.668    6838544.116
10 0 59937  24480.00000  0    -926756.534    -402997.327    6972926.341
10 0 59937  24660.00000  0   -1401687.787     871093.311    6851280.297
10 0 59937  24840.00000  0   -1792365.523    2124808.154    6478170.915
10 0 59937  25020.00000  0   -2085738.922    3310101.025    5867353.925
10 0 59937  25200.00000  0   -2273533.480    4381151.346    5041278.109
10 0 59937  25380.00000  0   -2352471.744    5296160.740    4030279.133
10 0 59937  25560.00000  0   -2324271.582    6019023.043    2871477.851
10 0 59937  25740.00000  0   -2195420.896    6520790.105    1607412.660
10 0 59937  25920.00000  0   -1976738.516    6780864.859     284456.614
10 0 59937  26100.00000  0   -1682741.896    6787863.429   -1048919.311
10 0 59937  26280.00000  0   -1330855.617    6540101.511   -2343968.584
10 0 59937  26460.00000  0    -940499.442    6045665.403   -3553493.226
10 0 59937  26640.00000  0    -532112.354    5322081.311   -4633568.720
10 0 59937  26820.00000  0    -126164.335    4395622.732   -5545114.771
10 0 59937  27000.00000  0     257799.947    3300292.922   -6255259.670
10 0 59937  27180.00000  0     602042.858    2076532.026   -6738458.274
10 0 59937  27360.00000  0     891402.649     769711.282   -6977336.289
10 0 59937  27540.00000  0    1113924.526    -571526.524   -6963258.142
10 0 59937  27720.00000  0    1261334.415   -1897034.104   -6696612.200
10 0 59937  27900.00000  0    1329341.902   -3156979.429   -6186811.233
10 0 59937  28080.00000  0    1317767.074   -4303676.887   -5452016.950
10 0 59937  28260.00000  0    1230482.572   -5293386.515   -4518571.865
10 0 59937  28440.00000  0    1075172.520   -6088010.346   -3420139.087
10 0 59937  28620.00000  0     862910.699   -6656625.258   -2196560.272
10 0 59937  28800.00000  0     607573.975   -6976776.286    -892450.965
10 0 59937  28980.00000  0     325113.248   -7035457.179     444426.871
10 0 59937  29160.00000  0      32715.435   -6829712.485    1764950.390
10 0 59937  29340.00000  0    -252099.468   -6366822.813    3020502.714
10 0 59937  29520.00000  0    -512397.936   -5664048.032    4164836.804
10 0 59937  29700.00000  0    -732718.613   -4747938.909    5155834.614
10 0 59937  29880.00000  0    -899876.152   -3653269.807    5957087.200
10 0 59937  30060.00000  0   -1003641.745   -2421643.926    6539238.367
10 0 59937  30240.00000  0   -1037268.547   -1099842.257    6881035.762
10 0 59937  30420.00000  0    -997841.853     261997.438    6970072.318
10 0 59937  30600.00000  0    -886443.575    1612311.473    6803208.632
10 0 59937  30780.00000  0    -708119.515    2900080.056    6386665.875
10 0 59937  30960.00000  0    -471653.099    4076768.440    5735791.293
10 0 59937  31140.00000  0    -189157.253    5098175.088    4874503.321
10 0 59937  31320.00000  0     124501.307    5926124.178    3834429.207
10 0 59937  31500.00000  0     452421.764    6529932.629    2653753.766
10 0 59937  31680.00000  0     776501.211    6887600.739    1375817.348
10 0 59937  31860.00000  0    1078343.742    6986650.783      47490.787
10 0 59937  32040.00000  0    1340195.664    6824566.755   -1282584.418
10 0 59937  32220.00000  0    1545856.624    6408822.796   -2565817.349
10 0 59937  32400.00000  0    1681519.461    5756505.563   -3755469.912
10 0 59937  32580.00000  0    1736499.991    4893553.647   -4808365.912
10 0 59937  32760.00000  0    1703821.868    3853657.386   -5686433.806
10 0 59937  32940.00000  0    1580630.571    2676887.941   -6358027.863
10 0 59937  33120.00000  0    1368421.849    1408123.895   -6798996.819
10 0 59937  33300.00000  0    1073080.194      95344.902   -6993479.123
10 0 59937  33480.00000  0     704727.888   -1212149.255   -6934421.678
10 0 59937  33660.00000  0     277387.260   -2465540.965   -6623813.315
10 0 59937  33840.00000  0    -191531.380   -3618265.505   -6072639.935
10 0 59937  34020.00000  0    -681907.839   -4627715.942   -5300556.991
10 0 59937  34200.00000  0   -1171735.310   -5456826.027   -4335269.371
10 0 59937  34380.00000  0   -1638066.503   -6075479.018   -3211622.658
10 0 59937  34560.00000  0   -2058047.583   -6461679.534   -1970411.946
10 0 59937  34740.00000  0   -2409994.166   -6602429.122    -656935.694
10 0 59937  34920.00000  0   -2674456.677   -6494250.881     680665.208
10 0 59937  35100.00000  0   -2835217.444   -6143317.295    1993216.838
10 0 59937  35280.00000  0   -2880162.077   -5565164.993    3232386.242
10 0 59937  35460.00000  0   -2801973.975   -4784006.943    4352529.722
10 0 59937  35640.00000  0   -2598614.092   -3831681.809    5312426.314
10 0 59937  35820.00000  0   -2273564.845   -2746298.556    6076822.511
10 0 59937  36000.00000  0   -1835823.290   -1570648.483    6617725.244
10 0 59937  36180.00000  0   -1299648.156    -350468.045    6915405.038
10 0 59937  36360.00000  0    -684077.136     867378.180    6959079.957
10 0 59937  36540.00000  0     -12236.530    2036714.840    6747275.053
10 0 59937  36720.00000  0     689539.909    3113818.531    6287857.674
10 0 59937  36900.00000  0    1392749.987    4059063.253    5597744.506
10 0 59937  37080.00000  0    2067881.533    4838396.702    4702292.144
10 0 59937  37260.00000  0    2685651.126    5424596.173    3634381.219
10 0 59937  37440.00000  0    3218272.522    5798251.276    2433219.250
10 0 59937  37620.00000  0    3640700.425    5948439.673    1142892.393
10 0 59937  37800.00000  0    3931781.926    5873044.825    -189286.762
10 0 59937  37980.00000  0    4075258.339    5578704.285   -1514554.918
10 0 59937  38160.00000  0    4060568.854    5080393.912   -2784521.504
10 0 59937  38340.00000  0    3883414.595    4400675.422   -3952961.308
10 0 59937  38520.00000  0    3546055.558    3568649.593   -4977497.193
10 0 59937  38700.00000  0    3057336.485    2618679.549   -5821105.321
10 0 59937  38880.00000  0    2432446.070    1588948.932   -6453396.061
10 0 59937  39060.00000  0    1692426.543     519923.710   -6851634.594
10 0 59937  39240.00000  0     863461.253    -547216.258   -7001486.119
10 0 59937  39420.00000  0     -24037.859   -1572125.902   -6897486.353
10 0 59937  39600.00000  0    -936516.032   -2516777.205   -6543225.883
10 0 59937  39780.00000  0   -1838504.549   -3346836.761   -5951256.853
10 0 59937  39960.00000  0   -2693962.741   -4032904.851   -5142711.376
10 0 59937  40140.00000  0   -3467696.309   -4551577.898   -4146634.000
10 0 59937  40320.00000  0   -4126807.380   -4886295.106   -2999020.813
10 0 59937  40500.00000  0   -4642112.406   -5027925.008   -1741579.925
10 0 59937  40680.00000  0   -4989463.110   -4975058.070    -420242.304
10 0 59937  40860.00000  0   -5150897.880   -4733980.357     916529.336
10 0 59937  41040.00000  0   -5115555.831   -4318318.771    2219567.790
10 0 59937  41220.00000  0   -4880293.987   -3748364.582    3440880.036
10 0 59937  41400.00000  0   -4449971.616   -3050111.682    4535481.871
10 0 59937  41580.00000  0   -3837386.222   -2254062.657    5463104.952
10 0 59937  41760.00000  0   -3062868.615   -1393870.335    6189696.429
10 0 59937  41940.00000  0   -2153566.396    -504888.477    6688664.756
10 0 59937  42120.00000  0   -1142442.382     377308.507    6941829.401
10 0 59937  42300.00000  0     -67039.896    1218362.148    6940044.046
10 0 59937  42480.00000  0    1031932.501    1986473.382    6683499.454
10 0 59937  42660.00000  0    2112155.623    2653611.081    6181698.348
10 0 59937  42840.00000  0    3131338.654    3196540.288    5453106.007
10 0 59937  43020.00000  0    4048889.956    3597642.312    4524487.628
10 0 59937  43200.00000  0    4827554.305    3845495.673    3429939.658
10 0 59937  43380.00000  0    5434956.414    3935197.782    2209646.930
10 0 59937  43560.00000  0    5844974.867    3868406.674     908390.882
10 0 59937  43740.00000  0    6038875.553    3653100.940    -426125.820
10 0 59937  43920.00000  0    6006146.380    3303069.238   -1745071.971
10 0 59937  44100.00000  0    5744990.213    2837157.616   -3000312.663
10 0 59937  44280.00000  0    5262457.363    2278320.233   -4146185.692
10 0 59937  44460.00000  0    4574220.758    1652523.629   -5141158.683
10 0 59937  44640.00000  0    3704006.845     987560.889   -5949298.553
10 0 59937  44820.00000  0    2682726.332     311840.562   -6541504.822
99
